{"type": "FeatureCollection", "features": [ {"type": "Feature", "properties": {"norad_id": 29795, "name": "FENGYUN 1C DEB", "group": "fengyun-1c-debris", "lat": -72.08798782429585, "lon": 150.90696545414212, "alt_km": 852.9770369344442, "timestamp": "2025-12-18T21:31:51.272900+00:00", "meta": {"OBJECT_NAME": "FENGYUN 1C DEB", "OBJECT_ID": "1999-025CM", "EPOCH": "2025-12-17T20:45:46.194336", "MEAN_MOTION": 13.9291175, "ECCENTRICITY": 0.01110416, "INCLINATION": 98.8708, "RA_OF_ASC_NODE": 121.0255, "ARG_OF_PERICENTER": 262.0357, "MEAN_ANOMALY": 250.924, "EPHEMERIS_TYPE": 0, "CLASSIFICATION_TYPE": "U", "NORAD_CAT_ID": 29795, "ELEMENT_SET_NO": 999, "REV_AT_EPOCH": 96136, "BSTAR": 9.7053721e-05, "MEAN_MOTION_DOT": 9e-07, "MEAN_MOTION_DDOT": 0}, "tle": {"line1": "1 29795U 99025CM  25351.86511799  .00000090  00000+0  97054-4 0  9996", "line2": "2 29795  98.8708 121.0255 0111041 262.0357 250.9240 13.92911750961368"}}, "geometry": {"type": "Point", "coordinates": [150.90696545414212, -72.08798782429585]}}, {"type": "Feature", "properties": {"norad_id": 29796, "name": "FENGYUN 1C DEB", "group": "fengyun-1c-debris", "lat": -20.350543868646366, "lon": 48.02048011638606, "alt_km": 855.7713926000633, "timestamp": "2025-12-18T21:31:51.272910+00:00", "meta": {"OBJECT_NAME": "FENGYUN 1C DEB", "OBJECT_ID": "1999-025CN", "EPOCH": "2025-12-18T03:11:29.669856", "MEAN_MOTION": 14.1234879, "ECCENTRICITY": 0.00521107, "INCLINATION": 98.8643, "RA_OF_ASC_NODE": 43.9465, "ARG_OF_PERICENTER": 252.437, "MEAN_ANOMALY": 163.4026, "EPHEMERIS_TYPE": 0, "CLASSIFICATION_TYPE": "U", "NORAD_CAT_ID": 29796, "ELEMENT_SET_NO": 999, "REV_AT_EPOCH": 97137, "BSTAR": 0.00054301372, "MEAN_MOTION_DOT": 9.69e-06, "MEAN_MOTION_DDOT": 0}, "tle": {"line1": "1 29796U 99025CN  25352.13298229  .00000969  00000+0  54301-3 0  9990", "line2": "2 29796  98.8643  43.9465 0052110 252.4370 163.4026 14.12348790971374"}}, "geometry": {"type": "Point", "coordinates": [48.02048011638606, -20.350543868646366]}}, {"type": "Feature", "properties": {"norad_id": 29798, "name": "FENGYUN 1C DEB", "group": "fengyun-1c-debris", "lat": 56.99851355661078, "lon": 42.290402887340164, "alt_km": 967.198720891588, "timestamp": "2025-12-18T21:31:51.272920+00:00", "meta": {"OBJECT_NAME": "FENGYUN 1C DEB", "OBJECT_ID": "1999-025CQ", "EPOCH": "2025-12-18T04:12:40.404096", "MEAN_MOTION": 13.99593358, "ECCENTRICITY": 0.01118208, "INCLINATION": 99.2955, "RA_OF_ASC_NODE": 56.1645, "ARG_OF_PERICENTER": 257.6264, "MEAN_ANOMALY": 126.1294, "EPHEMERIS_TYPE": 0, "CLASSIFICATION_TYPE": "U", "NORAD_CAT_ID": 29798, "ELEMENT_SET_NO": 999, "REV_AT_EPOCH": 96001, "BSTAR": 0.0012256217, "MEAN_MOTION_DOT": 1.842e-05, "MEAN_MOTION_DDOT": 0}, "tle": {"line1": "1 29798U 99025CQ  25352.17546764  .00001842  00000+0  12256-2 0  9999", "line2": "2 29798  99.2955  56.1645 0111820 257.6264 126.1294 13.99593358960014"}}, "geometry": {"type": "Point", "coordinates": [42.290402887340164, 56.99851355661078]}}, {"type": "Feature", "properties": {"norad_id": 29800, "name": "FENGYUN 1C DEB", "group": "fengyun-1c-debris", "lat": -22.56512603571319, "lon": -169.5520915258276, "alt_km": 807.5153964139035, "timestamp": "2025-12-18T21:31:51.272931+00:00", "meta": {"OBJECT_NAME": "FENGYUN 1C DEB", "OBJECT_ID": "1999-025CS", "EPOCH": "2025-12-14T12:34:15.669408", "MEAN_MOTION": 13.98577675, "ECCENTRICITY": 0.01335294, "INCLINATION": 98.2903, "RA_OF_ASC_NODE": 9.9649, "ARG_OF_PERICENTER": 222.1267, "MEAN_ANOMALY": 293.6575, "EPHEMERIS_TYPE": 0, "CLASSIFICATION_TYPE": "U", "NORAD_CAT_ID": 29800, "ELEMENT_SET_NO": 999, "REV_AT_EPOCH": 95601, "BSTAR": 0.0021913253, "MEAN_MOTION_DOT": 3.354e-05, "MEAN_MOTION_DDOT": 0}, "tle": {"line1": "1 29800U 99025CS  25348.52379247  .00003354  00000+0  21913-2 0  9997", "line2": "2 29800  98.2903   9.9649 0133529 222.1267 293.6575 13.98577675956010"}}, "geometry": {"type": "Point", "coordinates": [-169.5520915258276, -22.56512603571319]}}, {"type": "Feature", "properties": {"norad_id": 29801, "name": "FENGYUN 1C DEB", "group": "fengyun-1c-debris", "lat": -52.76398818156849, "lon": 62.29154107275935, "alt_km": 708.0896957657505, "timestamp": "2025-12-18T21:31:51.272941+00:00", "meta": {"OBJECT_NAME": "FENGYUN 1C DEB", "OBJECT_ID": "1999-025CT", "EPOCH": "2025-12-18T05:56:39.234048", "MEAN_MOTION": 14.35903307, "ECCENTRICITY": 0.01028056, "INCLINATION": 98.7951, "RA_OF_ASC_NODE": 253.3827, "ARG_OF_PERICENTER": 250.9596, "MEAN_ANOMALY": 227.7177, "EPHEMERIS_TYPE": 0, "CLASSIFICATION_TYPE": "U", "NORAD_CAT_ID": 29801, "ELEMENT_SET_NO": 999, "REV_AT_EPOCH": 99020, "BSTAR": 0.00014042231, "MEAN_MOTION_DOT": 3.83e-06, "MEAN_MOTION_DDOT": 0}, "tle": {"line1": "1 29801U 99025CT  25352.24767632  .00000383  00000+0  14042-3 0  9996", "line2": "2 29801  98.7951 253.3827 0102805 250.9596 227.7177 14.35903307990201"}}, "geometry": {"type": "Point", "coordinates": [62.29154107275935, -52.76398818156849]}}, {"type": "Feature", "properties": {"norad_id": 29802, "name": "FENGYUN 1C DEB", "group": "fengyun-1c-debris", "lat": 79.00646487479129, "lon": 50.9436556427953, "alt_km": 692.3704284239811, "timestamp": "2025-12-18T21:31:51.272952+00:00", "meta": {"OBJECT_NAME": "FENGYUN 1C DEB", "OBJECT_ID": "1999-025CU", "EPOCH": "2025-12-18T06:31:24.602592", "MEAN_MOTION": 14.62458793, "ECCENTRICITY": 0.00371624, "INCLINATION": 98.6194, "RA_OF_ASC_NODE": 101.6261, "ARG_OF_PERICENTER": 321.2946, "MEAN_ANOMALY": 71.2817, "EPHEMERIS_TYPE": 0, "CLASSIFICATION_TYPE": "U", "NORAD_CAT_ID": 29802, "ELEMENT_SET_NO": 999, "REV_AT_EPOCH": 98554, "BSTAR": 0.002309489, "MEAN_MOTION_DOT": 0.00011777, "MEAN_MOTION_DDOT": 0}, "tle": {"line1": "1 29802U 99025CU  25352.27181253  .00011777  00000+0  23095-2 0  9995", "line2": "2 29802  98.6194 101.6261 0037162 321.2946  71.2817 14.62458793985549"}}, "geometry": {"type": "Point", "coordinates": [50.9436556427953, 79.00646487479129]}}, {"type": "Feature", "properties": {"norad_id": 29804, "name": "FENGYUN 1C DEB", "group": "fengyun-1c-debris", "lat": -26.12280624186286, "lon": 176.55993281559705, "alt_km": 869.3780563239252, "timestamp": "2025-12-18T21:31:51.272962+00:00", "meta": {"OBJECT_NAME": "FENGYUN 1C DEB", "OBJECT_ID": "1999-025CW", "EPOCH": "2025-12-18T06:58:18.105312", "MEAN_MOTION": 14.04324058, "ECCENTRICITY": 0.0096985, "INCLINATION": 98.8047, "RA_OF_ASC_NODE": 0.3308, "ARG_OF_PERICENTER": 286.2207, "MEAN_ANOMALY": 96.0351, "EPHEMERIS_TYPE": 0, "CLASSIFICATION_TYPE": "U", "NORAD_CAT_ID": 29804, "ELEMENT_SET_NO": 999, "REV_AT_EPOCH": 96972, "BSTAR": 8.2385e-07, "MEAN_MOTION_DOT": -4.2e-07, "MEAN_MOTION_DDOT": 0}, "tle": {"line1": "1 29804U 99025CW  25352.29048733 -.00000042  00000+0  82385-6 0  9999", "line2": "2 29804  98.8047   0.3308 0096985 286.2207  96.0351 14.04324058969727"}}, "geometry": {"type": "Point", "coordinates": [176.55993281559705, -26.12280624186286]}}, {"type": "Feature", "properties": {"norad_id": 29805, "name": "FENGYUN 1C DEB", "group": "fengyun-1c-debris", "lat": 27.833715741774967, "lon": 39.042830259062754, "alt_km": 1126.7756505509578, "timestamp": "2025-12-18T21:31:51.272973+00:00", "meta": {"OBJECT_NAME": "FENGYUN 1C DEB", "OBJECT_ID": "1999-025CX", "EPOCH": "2025-12-18T02:08:44.331936", "MEAN_MOTION": 13.72659028, "ECCENTRICITY": 0.01881906, "INCLINATION": 99.4543, "RA_OF_ASC_NODE": 43.2928, "ARG_OF_PERICENTER": 215.8193, "MEAN_ANOMALY": 143.0214, "EPHEMERIS_TYPE": 0, "CLASSIFICATION_TYPE": "U", "NORAD_CAT_ID": 29805, "ELEMENT_SET_NO": 999, "REV_AT_EPOCH": 94776, "BSTAR": 0.00015810476, "MEAN_MOTION_DOT": 1.2e-06, "MEAN_MOTION_DDOT": 0}, "tle": {"line1": "1 29805U 99025CX  25352.08940199  .00000120  00000+0  15810-3 0  9996", "line2": "2 29805  99.4543  43.2928 0188190 215.8193 143.0214 13.72659028947765"}}, "geometry": {"type": "Point", "coordinates": [39.042830259062754, 27.833715741774967]}}, {"type": "Feature", "properties": {"norad_id": 29806, "name": "FENGYUN 1C DEB", "group": "fengyun-1c-debris", "lat": 25.50165817185569, "lon": 4.317050368765938, "alt_km": 869.2817529816566, "timestamp": "2025-12-18T21:31:51.272983+00:00", "meta": {"OBJECT_NAME": "FENGYUN 1C DEB", "OBJECT_ID": "1999-025CY", "EPOCH": "2025-12-17T23:37:55.386048", "MEAN_MOTION": 14.12016842, "ECCENTRICITY": 0.00277392, "INCLINATION": 98.7123, "RA_OF_ASC_NODE": 7.6252, "ARG_OF_PERICENTER": 236.5772, "MEAN_ANOMALY": 193.553, "EPHEMERIS_TYPE": 0, "CLASSIFICATION_TYPE": "U", "NORAD_CAT_ID": 29806, "ELEMENT_SET_NO": 999, "REV_AT_EPOCH": 97213, "BSTAR": 0.00047980495, "MEAN_MOTION_DOT": 8.39e-06, "MEAN_MOTION_DDOT": 0}, "tle": {"line1": "1 29806U 99025CY  25351.98466882  .00000839  00000+0  47980-3 0  9997", "line2": "2 29806  98.7123   7.6252 0027739 236.5772 193.5530 14.12016842972136"}}, "geometry": {"type": "Point", "coordinates": [4.317050368765938, 25.50165817185569]}}, {"type": "Feature", "properties": {"norad_id": 29807, "name": "FENGYUN 1C DEB", "group": "fengyun-1c-debris", "lat": 15.666360535293817, "lon": -5.137455446355553, "alt_km": 836.85563155622, "timestamp": "2025-12-18T21:31:51.272993+00:00", "meta": {"OBJECT_NAME": "FENGYUN 1C DEB", "OBJECT_ID": "1999-025CZ", "EPOCH": "2025-12-18T06:06:51.970752", "MEAN_MOTION": 14.08662958, "ECCENTRICITY": 0.00793199, "INCLINATION": 98.7547, "RA_OF_ASC_NODE": 356.7158, "ARG_OF_PERICENTER": 316.2604, "MEAN_ANOMALY": 43.2299, "EPHEMERIS_TYPE": 0, "CLASSIFICATION_TYPE": "U", "NORAD_CAT_ID": 29807, "ELEMENT_SET_NO": 999, "REV_AT_EPOCH": 97172, "BSTAR": 0.00020664182, "MEAN_MOTION_DOT": 3.23e-06, "MEAN_MOTION_DDOT": 0}, "tle": {"line1": "1 29807U 99025CZ  25352.25476818  .00000323  00000+0  20664-3 0  9997", "line2": "2 29807  98.7547 356.7158 0079319 316.2604  43.2299 14.08662958971728"}}, "geometry": {"type": "Point", "coordinates": [-5.137455446355553, 15.666360535293817]}}]}